{
    "links": {
        "self": "http://www.neowsapp.com/rest/v1/neo/3841192?api_key=iIulBulltgU6a56xZRHN4H3l9WmuAYTsLGpBGhQ2"
    },
    "id": "3841192",
    "neo_reference_id": "3841192",
    "name": "(2019 GH20)",
    "designation": "2019 GH20",
    "nasa_jpl_url": "http://ssd.jpl.nasa.gov/sbdb.cgi?sstr=3841192",
    "absolute_magnitude_h": 22.1,
    "estimated_diameter": {
        "kilometers": {
            "estimated_diameter_min": 0.1010543415,
            "estimated_diameter_max": 0.2259643771
        },
        "meters": {
            "estimated_diameter_min": 101.054341542,
            "estimated_diameter_max": 225.9643771094
        },
        "miles": {
            "estimated_diameter_min": 0.0627922373,
            "estimated_diameter_max": 0.140407711
        },
        "feet": {
            "estimated_diameter_min": 331.5431259047,
            "estimated_diameter_max": 741.3529669956
        }
    },
    "is_potentially_hazardous_asteroid": false,
    "close_approach_data": [
        {
            "close_approach_date": "2019-03-28",
            "close_approach_date_full": "2019-Mar-28 20:45",
            "epoch_date_close_approach": 1553805900000,
            "relative_velocity": {
                "kilometers_per_second": "10.7128235982",
                "kilometers_per_hour": "38566.1649534246",
                "miles_per_hour": "23963.5151067543"
            },
            "miss_distance": {
                "astronomical": "0.4730545412",
                "lunar": "184.0182165268",
                "kilometers": "70767951.757347244",
                "miles": "43973166.1592062072"
            },
            "orbiting_body": "Earth"
        }
    ],
    "orbital_data": {
        "orbit_id": "2",
        "orbit_determination_date": "2019-04-25 07:15:14",
        "first_observation_date": "2019-04-05",
        "last_observation_date": "2019-04-24",
        "data_arc_in_days": 19,
        "observations_used": 18,
        "orbit_uncertainty": "8",
        "minimum_orbit_intersection": ".403371",
        "jupiter_tisserand_invariant": "3.521",
        "epoch_osculation": "2458584.5",
        "eccentricity": ".4037881105680766",
        "semi_major_axis": "2.141363372313233",
        "inclination": "21.60237232552459",
        "ascending_node_longitude": "205.4213101422505",
        "orbital_period": "1144.547923180263",
        "perihelion_distance": "1.276706302167188",
        "perihelion_argument": "297.2411955229605",
        "aphelion_distance": "3.006020442459278",
        "perihelion_time": "2458501.783368218028",
        "mean_anomaly": "26.01724824135649",
        "mean_motion": ".3145346671021839",
        "equinox": "J2000",
        "orbit_class": {
            "orbit_class_type": "AMO",
            "orbit_class_description": "Near-Earth asteroid orbits similar to that of 1221 Amor",
            "orbit_class_range": "1.017 AU < q (perihelion) < 1.3 AU"
        }
    },
    "is_sentry_object": false
}